[
    {
        "Altitude(m)": 624792.7536472975,
        "Argument of Periapsis(deg)": 0.0,
        "Eccentricity": 0.0,
        "Inclination(deg)": 60.0,
        "Latitude(deg)": -59.14703171409571,
        "Longitude(deg)": 39.02654659933922,
        "Mean Anomaly(deg)": -98.18179999999998,
        "RAAN(deg)": 245.0,
        "Satellite Name": "Test1 1094",
        "Satellite Number": 1094,
        "Semi-Major Axis(m)": 6980739.136638005,
        "Time(s)": 0
    },
    {
        "Altitude(m)": 624842.1451751252,
        "Argument of Periapsis(deg)": 0.00010418945913296404,
        "Eccentricity": 0.0,
        "Inclination(deg)": 60.0,
        "Latitude(deg)": -59.28911361699054,
        "Longitude(deg)": 40.15604960433165,
        "Mean Anomaly(deg)": -97.56169385453813,
        "RAAN(deg)": 244.99957995086027,
        "Satellite Name": "Test1 1094",
        "Satellite Number": 1094,
        "Semi-Major Axis(m)": 6980739.136638005,
        "Time(s)": 10
    }
]